 2015 1213 1851 40.0 L   9.422 -73.401  8.0  RSN 12 0.4 1.8LRSN                1
 GAP=154        0.95       1.5     2.8  3.0 -0.1759E+01 -0.1726E+01  0.4999E+00E
 ACTION:SPL 22-05-20 14:03 OP:l    STATUS:               ID:20151213185139 L   I
 OLDACT:UPD 20-09-10 14:47 OP:lv   STATUS:               ID:20151213185139 L   3
 OLDACT:UP  16-03-23 19:26 OP:spq  STATUS:               ID:20151213184921     3
 OLDACT:REG 16-03-13 16:58 OP:fm   STATUS:               ID:20151213184921     3
 2015-12-13-1849-21S.COL___184                                                 6
 STAT SP IPHASW D HRMM SECON CODA AMPLIT PERI AZIMU VELO AIN AR TRES W  DIS CAZ7
 LL7C HZ IP     C 1851 42.05                             126   -0.0710 9.97 203 
 LL7C HN ES       1851 44.40                             126    0.6710 9.97 203 
 LL7C HZ  IAML    1851 44.86       252.8 0.06                          9.97 203 
 LL1C HZ IP     D 1851 44.14                             106    0.3910 21.4 308 
 LL1C HN ES   4   1851 48.41                             106    1.82 0 21.4 308 
 LL1C HZ  IAML    1851 48.77       151.5 0.27                          21.4 308 
 LL6C HZ EP       1851 45.58                              98   -0.6310 37.5  23 
 LL6C HZ ES   1   1851 50.48                              98   -0.44 7 37.5  23 
 LL6C HZ  IAML    1851 50.93        12.7 0.15                          37.5  23 
 LL8C HZ IP     C 1851 46.76                              96   -0.5210 44.4 258 
 LL8C HN ES       1851 52.74                              96   -0.0610 44.4 258 
 LL8C HZ  IAML    1851 53.10        33.4 0.09                          44.4 258 
 SML  HZ EP       1851 55.54                              70   -0.2810  101 227 
 SML  HN ES       1852  7.34                              70   -0.5010  101 227 
 SML  HZ  IAML    1852  8.27        90.0 0.10                           101 227 
 AGCC HZ EP     D 1851 56.02                              70   -0.1210  103 191 
 AGCC HE ES       1852  8.23                              70   -0.1710  103 191 
 AGCC HZ  IAML    1852  9.48        20.3 0.02                           103 191 
 ARGC HZ E        1851 56.88                                            104 298 
 ARGC HZ EP       1851 56.88                              70    0.5010  104 298 
 ARGC HN ES   4   1852 10.31                              70    1.49 0  104 298 
 ARGC HZ  IAML    1852 13.59        12.2 0.28                           104 298 
 VALLCHZ EP       1851 58.74                              70   -0.1010  121   7 
 VALLCHE ES   1   1852 13.54                              70    0.38 7  121   7 
 VALLCHZ  IAML    1852 17.77        35.5 0.48                           121   7 
 OCA  HZ EP       1852  0.30                              70   -0.1110  131 176 
 OCA  HE ES       1852 16.15                              70    0.2410  131 176 
 OCA  HZ  IAML    1852 17.83        47.5 0.30                           131 176 
 MORC EZ EP       1852  1.79                              70   -0.05 9  141 207 
 MORC HE ES   1   1852 18.63                              70    0.20 7  141 207 
 MORC EE ES       1852 18.73                              70    0.30 9  141 207 
 MORC HZ  IAML    1852 19.01        15.5 0.18                           141 207 
 MORC EZ  IAML    1852 19.02         8.4 0.19                           141 207 
 CRJC HZ EP   1   1852  8.39                              59    0.13 7  186  18 
 CRJC HE ES       1852 30.27                              59    0.55 9  186  18 
 CRJC HZ  IAML    1852 32.01        20.4 0.18                           186  18 
 SJC  HZ EP   4   1852 12.57                              51    2.26 0  202 285 
 SJC  HN ES   4   1852 35.13                              51    1.79 0  202 285 
 SJC  HZ  IAML    1852 40.03         2.4 0.42                           202 285 
                                                                                
